{
  "type": "FeatureCollection",
  "features": [
    {
      "type": "Feature",
      "properties": {
        "norad_id": 34571,
        "name": "COSMOS 2251 DEB",
        "group": "cosmos-2251-debris",
        "lat": 44.72928460047011,
        "lon": -22.5683406751548,
        "alt_km": 712.7085781805526,
        "timestamp": "2025-12-17T07:00:47.304067+00:00",
        "meta_object_name": "COSMOS 2251 DEB",
        "meta_object_id": "1993-036VH",
        "meta_epoch": "2025-12-16T13:49:32.553408",
        "meta_mean_motion": 14.48871631,
        "meta_eccentricity": 0.00656278,
        "meta_inclination": 74.0389,
        "meta_ra_of_asc_node": 175.2429,
        "meta_arg_of_pericenter": 209.3038,
        "meta_mean_anomaly": 150.4436,
        "meta_ephemeris_type": 0,
        "meta_classification_type": "U",
        "meta_norad_cat_id": 34571,
        "meta_element_set_no": 999,
        "meta_rev_at_epoch": 87349,
        "meta_bstar": 0.0017589053,
        "meta_mean_motion_dot": 6.815e-05,
        "meta_mean_motion_ddot": 0,
        "tle_line1": "1 34571U 93036VH  25350.57607122  .00006815  00000+0  17589-2 0  9997",
        "tle_line2": "2 34571  74.0389 175.2429 0065627 209.3038 150.4436 14.48871631873491"
      },
      "geometry": {
        "type": "Point",
        "coordinates": [
          -22.5683406751548,
          44.72928460047011
        ]
      }
    },
    {
      "type": "Feature",
      "properties": {
        "norad_id": 34572,
        "name": "COSMOS 2251 DEB",
        "group": "cosmos-2251-debris",
        "lat": 15.077080098070804,
        "lon": 111.37254782964118,
        "alt_km": 768.3826620137779,
        "timestamp": "2025-12-17T07:00:47.304077+00:00",
        "meta_object_name": "COSMOS 2251 DEB",
        "meta_object_id": "1993-036VJ",
        "meta_epoch": "2025-12-16T07:54:28.545984",
        "meta_mean_motion": 14.50089794,
        "meta_eccentricity": 0.00624031,
        "meta_inclination": 74.0096,
        "meta_ra_of_asc_node": 108.7525,
        "meta_arg_of_pericenter": 181.9081,
        "meta_mean_anomaly": 210.4216,
        "meta_ephemeris_type": 0,
        "meta_classification_type": "U",
        "meta_norad_cat_id": 34572,
        "meta_element_set_no": 999,
        "meta_rev_at_epoch": 87430,
        "meta_bstar": 0.001902929,
        "meta_mean_motion_dot": 7.55e-05,
        "meta_mean_motion_ddot": 0,
        "tle_line1": "1 34572U 93036VJ  25350.32949706  .00007550  00000+0  19029-2 0  9996",
        "tle_line2": "2 34572  74.0096 108.7525 0062403 181.9081 210.4216 14.50089794874305"
      },
      "geometry": {
        "type": "Point",
        "coordinates": [
          111.37254782964118,
          15.077080098070804
        ]
      }
    },
    {
      "type": "Feature",
      "properties": {
        "norad_id": 34574,
        "name": "COSMOS 2251 DEB",
        "group": "cosmos-2251-debris",
        "lat": -56.40772509193966,
        "lon": -120.21556714502748,
        "alt_km": 712.5787790285522,
        "timestamp": "2025-12-17T07:00:47.304087+00:00",
        "meta_object_name": "COSMOS 2251 DEB",
        "meta_object_id": "1993-036VL",
        "meta_epoch": "2025-12-16T14:10:26.071392",
        "meta_mean_motion": 14.70648633,
        "meta_eccentricity": 0.00669881,
        "meta_inclination": 74.0696,
        "meta_ra_of_asc_node": 35.674,
        "meta_arg_of_pericenter": 55.4342,
        "meta_mean_anomaly": 71.4664,
        "meta_ephemeris_type": 0,
        "meta_classification_type": "U",
        "meta_norad_cat_id": 34574,
        "meta_element_set_no": 999,
        "meta_rev_at_epoch": 88835,
        "meta_bstar": 0.0006452527,
        "meta_mean_motion_dot": 4.036e-05,
        "meta_mean_motion_ddot": 0,
        "tle_line1": "1 34574U 93036VL  25350.59057953  .00004036  00000+0  64525-3 0  9999",
        "tle_line2": "2 34574  74.0696  35.6740 0066988  55.4342  71.4664 14.70648633888354"
      },
      "geometry": {
        "type": "Point",
        "coordinates": [
          -120.21556714502748,
          -56.40772509193966
        ]
      }
    },
    {
      "type": "Feature",
      "properties": {
        "norad_id": 34576,
        "name": "COSMOS 2251 DEB",
        "group": "cosmos-2251-debris",
        "lat": -37.28775166367704,
        "lon": 116.98064396259609,
        "alt_km": 710.5825560863123,
        "timestamp": "2025-12-17T07:00:47.304097+00:00",
        "meta_object_name": "COSMOS 2251 DEB",
        "meta_object_id": "1993-036VN",
        "meta_epoch": "2025-12-16T11:41:05.165376",
        "meta_mean_motion": 14.55452426,
        "meta_eccentricity": 0.00081927,
        "meta_inclination": 74.0337,
        "meta_ra_of_asc_node": 131.0976,
        "meta_arg_of_pericenter": 267.6962,
        "meta_mean_anomaly": 155.2533,
        "meta_ephemeris_type": 0,
        "meta_classification_type": "U",
        "meta_norad_cat_id": 34576,
        "meta_element_set_no": 999,
        "meta_rev_at_epoch": 88521,
        "meta_bstar": 0.00063614234,
        "meta_mean_motion_dot": 2.74e-05,
        "meta_mean_motion_ddot": 0,
        "tle_line1": "1 34576U 93036VN  25350.48686534  .00002740  00000+0  63614-3 0  9990",
        "tle_line2": "2 34576  74.0337 131.0976 0008192 267.6962 155.2533 14.55452426885212"
      },
      "geometry": {
        "type": "Point",
        "coordinates": [
          116.98064396259609,
          -37.28775166367704
        ]
      }
    },
    {
      "type": "Feature",
      "properties": {
        "norad_id": 34579,
        "name": "COSMOS 2251 DEB",
        "group": "cosmos-2251-debris",
        "lat": 12.919436650832385,
        "lon": -140.82125009605332,
        "alt_km": 741.7981324151679,
        "timestamp": "2025-12-17T07:00:47.304107+00:00",
        "meta_object_name": "COSMOS 2251 DEB",
        "meta_object_id": "1993-036VR",
        "meta_epoch": "2025-12-16T17:58:47.830944",
        "meta_mean_motion": 14.45319765,
        "meta_eccentricity": 0.0027546,
        "meta_inclination": 74.0519,
        "meta_ra_of_asc_node": 216.4285,
        "meta_arg_of_pericenter": 284.4571,
        "meta_mean_anomaly": 144.3618,
        "meta_ephemeris_type": 0,
        "meta_classification_type": "U",
        "meta_norad_cat_id": 34579,
        "meta_element_set_no": 999,
        "meta_rev_at_epoch": 88232,
        "meta_bstar": 0.0003546312,
        "meta_mean_motion_dot": 1.224e-05,
        "meta_mean_motion_ddot": 0,
        "tle_line1": "1 34579U 93036VR  25350.74916471  .00001224  00000+0  35463-3 0  9995",
        "tle_line2": "2 34579  74.0519 216.4285 0027546 284.4571 144.3618 14.45319765882324"
      },
      "geometry": {
        "type": "Point",
        "coordinates": [
          -140.82125009605332,
          12.919436650832385
        ]
      }
    },
    {
      "type": "Feature",
      "properties": {
        "norad_id": 34582,
        "name": "COSMOS 2251 DEB",
        "group": "cosmos-2251-debris",
        "lat": -71.94527066272971,
        "lon": -157.61850394233554,
        "alt_km": 756.9496268956846,
        "timestamp": "2025-12-17T07:00:47.304120+00:00",
        "meta_object_name": "COSMOS 2251 DEB",
        "meta_object_id": "1993-036VU",
        "meta_epoch": "2025-12-16T19:44:38.248224",
        "meta_mean_motion": 14.43347341,
        "meta_eccentricity": 0.00481059,
        "meta_inclination": 74.0201,
        "meta_ra_of_asc_node": 264.7834,
        "meta_arg_of_pericenter": 14.0428,
        "meta_mean_anomaly": 346.2053,
        "meta_ephemeris_type": 0,
        "meta_classification_type": "U",
        "meta_norad_cat_id": 34582,
        "meta_element_set_no": 999,
        "meta_rev_at_epoch": 88006,
        "meta_bstar": 0.00063252445,
        "meta_mean_motion_dot": 2.137e-05,
        "meta_mean_motion_ddot": 0,
        "tle_line1": "1 34582U 93036VU  25350.82266491  .00002137  00000+0  63252-3 0  9999",
        "tle_line2": "2 34582  74.0201 264.7834 0048105  14.0428 346.2053 14.43347341880068"
      },
      "geometry": {
        "type": "Point",
        "coordinates": [
          -157.61850394233554,
          -71.94527066272971
        ]
      }
    },
    {
      "type": "Feature",
      "properties": {
        "norad_id": 34588,
        "name": "COSMOS 2251 DEB",
        "group": "cosmos-2251-debris",
        "lat": -45.22652544723942,
        "lon": -116.94158921839508,
        "alt_km": 744.4440929426646,
        "timestamp": "2025-12-17T07:00:47.304134+00:00",
        "meta_object_name": "COSMOS 2251 DEB",
        "meta_object_id": "1993-036WA",
        "meta_epoch": "2025-12-16T19:50:22.725024",
        "meta_mean_motion": 14.42034208,
        "meta_eccentricity": 0.00192331,
        "meta_inclination": 74.043,
        "meta_ra_of_asc_node": 260.6824,
        "meta_arg_of_pericenter": 312.9135,
        "meta_mean_anomaly": 103.6671,
        "meta_ephemeris_type": 0,
        "meta_classification_type": "U",
        "meta_norad_cat_id": 34588,
        "meta_element_set_no": 999,
        "meta_rev_at_epoch": 88009,
        "meta_bstar": 0.00039476572,
        "meta_mean_motion_dot": 1.272e-05,
        "meta_mean_motion_ddot": 0,
        "tle_line1": "1 34588U 93036WA  25350.82665191  .00001272  00000+0  39477-3 0  9996",
        "tle_line2": "2 34588  74.0430 260.6824 0019233 312.9135 103.6671 14.42034208880095"
      },
      "geometry": {
        "type": "Point",
        "coordinates": [
          -116.94158921839508,
          -45.22652544723942
        ]
      }
    }
  ]
}